NORAD_CAT_ID,OBJECT_NAME,OBJECT_TYPE,EPOCH,MEAN_MOTION,ECCENTRICITY,INCLINATION,RA_OF_ASC_NODE,ARG_OF_PERICENTER,MEAN_ANOMALY,BSTAR,MEAN_MOTION_DOT,MEAN_MOTION_DDOT,TLE_LINE0,TLE_LINE1,TLE_LINE2,SEMIMAJOR_AXIS,PERIOD,APOGEE,PERIGEE,DECAYED
53968.0,STARLINK-4629,PAYLOAD,2023-05-23 16:01:27,15.08841736,0.0001289,53.2158,127.5851,89.1133,271.0006,4.6104e-05,4.46e-06,0.0,0 STARLINK-4629,1 53968U 22125E   23143.66767434  .00000446  00000-0  46104-4 0  9992,2 53968  53.2158 127.5851 0001289  89.1133 271.0006 15.08841736 35187,6917.875,95.437,540.632,538.848,0.0
53968.0,STARLINK-4629,PAYLOAD,2023-05-24 07:55:18,15.08843797,0.0001295,53.2157,124.6108,89.1262,270.9879,7.1348e-05,8.48e-06,0.0,0 STARLINK-4629,1 53968U 22125E   23144.33007215  .00000848  00000-0  71348-4 0  9995,2 53968  53.2157 124.6108 0001295  89.1262 270.9879 15.08843797 35285,6917.869,95.437,540.63,538.838,0.0
53968.0,STARLINK-4629,PAYLOAD,2023-05-25 22:04:33,15.08842197,0.0001332,53.2157,117.4734,88.1765,271.938,7.4553e-05,8.99e-06,0.0,0 STARLINK-4629,1 53968U 22125E   23145.91983376  .00000899  00000-0  74553-4 0  9998,2 53968  53.2157 117.4734 0001332  88.1765 271.9380 15.08842197 35527,6917.874,95.437,540.66,538.817,0.0
53968.0,STARLINK-4629,PAYLOAD,2023-05-26 04:26:05,15.08844746,0.0001352,53.2159,116.2838,90.8775,269.2372,8.5028e-05,1.066e-05,0.0,0 STARLINK-4629,1 53968U 22125E   23146.18479128  .00001066  00000-0  85028-4 0  9999,2 53968  53.2159 116.2838 0001352  90.8775 269.2372 15.08844746 35639,6917.866,95.437,540.666,538.796,0.0
53968.0,STARLINK-4629,PAYLOAD,2023-05-27 02:41:30,15.0884038,0.000128,53.2157,112.1225,81.4463,278.6674,3.9008e-05,3.33e-06,0.0,0 STARLINK-4629,1 53968U 22125E   23147.11215543  .00000333  00000-0  39008-4 0  9995,2 53968  53.2157 112.1225 0001280  81.4463 278.6674 15.08840380 35776,6917.879,95.438,540.63,538.859,0.0
53968.0,STARLINK-4629,PAYLOAD,2023-05-27 07:27:39,15.08841537,0.0001272,53.2156,111.2297,82.4278,277.6858,4.7243e-05,4.64e-06,0.0,0 STARLINK-4629,1 53968U 22125E   23147.31087400  .00000464  00000-0  47243-4 0  9991,2 53968  53.2156 111.2297 0001272  82.4278 277.6858 15.08841537 35734,6917.876,95.437,540.621,538.861,0.0
53968.0,STARLINK-4629,PAYLOAD,2023-05-28 02:32:17,15.0883659,0.0001305,53.2159,107.6595,95.8911,264.223,-2.933e-05,-7.55e-06,0.0,0 STARLINK-4629,1 53968U 22125E   23148.10575979 -.00000755  00000-0 -29330-4 0  9994,2 53968  53.2159 107.6595 0001305  95.8911 264.2230 15.08836590 35926,6917.891,95.438,540.659,538.853,0.0
53968.0,STARLINK-4629,PAYLOAD,2023-05-28 04:07:40,15.08838312,0.0001248,53.2155,107.3624,85.5253,274.5882,-1.3288e-05,-4.99e-06,0.0,0 STARLINK-4629,1 53968U 22125E   23148.17199884 -.00000499  00000-0 -13288-4 0  9998,2 53968  53.2155 107.3624 0001248  85.5253 274.5882 15.08838312 35867,6917.886,95.438,540.614,538.887,0.0
53968.0,STARLINK-4629,PAYLOAD,2023-05-28 07:18:26,15.08838012,0.0001253,53.2156,106.7678,85.5675,274.5461,-1.424e-05,-5.14e-06,0.0,0 STARLINK-4629,1 53968U 22125E   23148.30447913 -.00000514  00000-0 -14240-4 0  9999,2 53968  53.2156 106.7678 0001253  85.5675 274.5461 15.08838012 35886,6917.886,95.438,540.618,538.885,0.0
53968.0,STARLINK-4629,PAYLOAD,2023-05-29 02:23:04,15.08843065,0.0001253,53.2163,103.1992,84.6555,275.4581,8.7381e-05,1.103e-05,0.0,0 STARLINK-4629,1 53968U 22125E   23149.09935326  .00001103  00000-0  87381-4 0  9995,2 53968  53.2163 103.1992 0001253  84.6555 275.4581 15.08843065 36070,6917.871,95.437,540.603,538.869,0.0
53968.0,STARLINK-4629,PAYLOAD,2023-05-29 03:58:27,15.08847273,0.0001157,53.2161,102.9025,86.0282,274.0842,8.0376e-05,9.92e-06,0.0,0 STARLINK-4629,1 53968U 22125E   23149.16559064  .00000992  00000-0  80376-4 0  9996,2 53968  53.2161 102.9025 0001157  86.0282 274.0842 15.08847273 36012,6917.858,95.437,540.524,538.923,0.0
53968.0,STARLINK-4629,PAYLOAD,2023-05-29 21:27:42,15.08833989,0.0001008,53.2164,99.6322,83.9808,276.1299,1.2081e-05,-9.5e-07,0.0,0 STARLINK-4629,1 53968U 22125E   23149.89424361 -.00000095  00000-0  12081-4 0  9990,2 53968  53.2164  99.6322 0001008  83.9808 276.1299 15.08833989 36122,6917.899,95.438,540.461,539.066,0.0
53968.0,STARLINK-4629,PAYLOAD,2023-05-30 00:38:28,15.08834379,0.0001151,53.2161,99.0384,91.797,268.3154,9.1392e-06,-1.42e-06,0.0,0 STARLINK-4629,1 53968U 22125E   23150.02672369 -.00000142  00000-0  91392-5 0  9996,2 53968  53.2161  99.0384 0001151  91.7970 268.3154 15.08834379 36214,6917.898,95.438,540.559,538.966,0.0
53968.0,STARLINK-4629,PAYLOAD,2023-05-30 05:24:38,15.08834851,0.0001182,53.2165,98.1454,89.0696,271.0431,1.5408e-05,-4.3e-07,0.0,0 STARLINK-4629,1 53968U 22125E   23150.22544390 -.00000043  00000-0  15408-4 0  9993,2 53968  53.2165  98.1454 0001182  89.0696 271.0431 15.08834851 36174,6917.896,95.438,540.579,538.943,0.0
53968.0,STARLINK-4629,PAYLOAD,2023-05-31 02:04:38,15.08842955,0.0001202,53.2164,94.279,95.562,264.5509,1.0255e-05,-1.25e-06,0.0,0 STARLINK-4629,1 53968U 22125E   23151.08656060 -.00000125  00000-0  10255-4 0  9992,2 53968  53.2164  94.2790 0001202  95.5620 264.5509 15.08842955 36374,6917.871,95.437,540.568,538.905,0.0
53968.0,STARLINK-4629,PAYLOAD,2023-05-31 05:15:25,15.08819547,0.0001182,53.2164,93.6853,115.4768,244.6347,0.00043104,6.575e-05,0.0,0 STARLINK-4629,1 53968U 22125E   23151.21904277  .00006575  00000-0  43104-3 0  9995,2 53968  53.2164  93.6853 0001182 115.4768 244.6347 15.08819547 36391,6917.943,95.439,540.626,538.99,0.0
53968.0,STARLINK-4629,PAYLOAD,2023-05-31 19:33:53,15.08840404,0.0001212,53.2164,91.008,103.8347,256.278,0.00010693,1.414e-05,0.0,0 STARLINK-4629,1 53968U 22125E   23151.81519896  .00001414  00000-0  10693-3 0  9994,2 53968  53.2164  91.0080 0001212 103.8347 256.2780 15.08840404 36412,6917.879,95.438,540.583,538.906,0.0
53968.0,STARLINK-4629,PAYLOAD,2023-06-01 01:55:26,15.08838718,0.0001228,53.2164,89.8185,104.7988,255.314,8.9799e-05,1.142e-05,0.0,0 STARLINK-4629,1 53968U 22125E   23152.08016229  .00001142  00000-0  89799-4 0  9998,2 53968  53.2164  89.8185 0001228 104.7988 255.3140 15.08838718 36528,6917.884,95.438,540.599,538.9,0.0
53968.0,STARLINK-4629,PAYLOAD,2023-06-01 05:06:11,15.08844265,0.0001243,53.2164,89.2236,105.4117,254.7013,0.00013437,1.852e-05,0.0,0 STARLINK-4629,1 53968U 22125E   23152.21263779  .00001852  00000-0  13437-3 0  9990,2 53968  53.2164  89.2236 0001243 105.4117 254.7013 15.08844265 36478,6917.867,95.437,540.592,538.872,0.0
53968.0,STARLINK-4629,PAYLOAD,2023-06-02 01:46:13,15.08840963,0.00013,53.2164,85.357,104.2952,255.8184,1.4206e-05,-6.2e-07,0.0,0 STARLINK-4629,1 53968U 22125E   23153.07376409 -.00000062  00000-0  14206-4 0  9999,2 53968  53.2164  85.3570 0001300 104.2952 255.8184 15.08840963 36678,6917.877,95.437,540.642,538.843,0.0
53968.0,STARLINK-4629,PAYLOAD,2023-06-02 04:56:59,15.08847151,0.0001298,53.2167,84.7623,97.3941,262.7198,6.2331e-05,7.04e-06,0.0,0 STARLINK-4629,1 53968U 22125E   23153.20623905  .00000704  00000-0  62331-4 0  9994,2 53968  53.2167  84.7623 0001298  97.3941 262.7198 15.08847151 36699,6917.859,95.437,540.621,538.826,0.0
53968.0,STARLINK-4629,PAYLOAD,2023-06-02 19:15:27,15.08851029,0.0001332,53.2152,82.0852,102.9018,257.2123,-0.00019195,-3.342e-05,0.0,0 STARLINK-4629,1 53968U 22125E   23153.80240659 -.00003342  00000-0 -19195-3 0  9993,2 53968  53.2152  82.0852 0001332 102.9018 257.2123 15.08851029 36714,6917.847,95.437,540.633,538.79,0.0
53968.0,STARLINK-4629,PAYLOAD,2023-06-03 01:37:00,15.08836608,0.0001234,53.2167,80.8973,93.3087,266.8046,-7.1422e-06,-4.02e-06,0.0,0 STARLINK-4629,1 53968U 22125E   23154.06736969 -.00000402  00000-0 -71422-5 0  9993,2 53968  53.2167  80.8973 0001234  93.3087 266.8046 15.08836608 36828,6917.891,95.438,540.609,538.902,0.0
53968.0,STARLINK-4629,PAYLOAD,2023-06-04 01:27:46,15.08850205,0.0001301,53.2171,76.4358,88.2986,271.8156,4.7815e-05,4.73e-06,0.0,0 STARLINK-4629,1 53968U 22125E   23155.06095940  .00000473  00000-0  47815-4 0  9995,2 53968  53.2171  76.4358 0001301  88.2986 271.8156 15.08850205 36970,6917.849,95.437,540.614,538.814,0.0
53968.0,STARLINK-4629,PAYLOAD,2023-06-04 04:38:33,15.08850167,0.0001295,53.2166,75.842,86.7747,273.3393,7.8172e-05,9.57e-06,0.0,0 STARLINK-4629,1 53968U 22125E   23155.19343788  .00000957  00000-0  78172-4 0  9992,2 53968  53.2166  75.8420 0001295  86.7747 273.3393 15.08850167 36929,6917.849,95.437,540.61,538.818,0.0
53968.0,STARLINK-4629,PAYLOAD,2023-06-04 18:57:02,15.08833789,9.06e-05,53.2173,73.1651,84.5433,275.5663,1.6581e-05,-2.4e-07,0.0,0 STARLINK-4629,1 53968U 22125E   23155.78960999 -.00000024  00000-0  16581-4 0  9998,2 53968  53.2173  73.1651 0000906  84.5433 275.5663 15.08833789 37083,6917.899,95.438,540.391,539.138,0.0
53968.0,STARLINK-4629,PAYLOAD,2023-06-04 22:07:48,15.08836064,0.0001283,53.2164,72.57,102.0025,258.1111,3.923e-05,3.36e-06,0.0,0 STARLINK-4629,1 53968U 22125E   23155.92208822  .00000336  00000-0  39230-4 0  9995,2 53968  53.2164  72.5700 0001283 102.0025 258.1111 15.08836064 37032,6917.892,95.438,540.645,538.87,0.0
53968.0,STARLINK-4629,PAYLOAD,2023-06-05 01:18:34,15.08840502,0.0001167,53.217,71.9771,87.7916,272.321,8.3611e-05,1.043e-05,0.0,0 STARLINK-4629,1 53968U 22125E   23156.05456414  .00001043  00000-0  83611-4 0  9990,2 53968  53.2170  71.9771 0001167  87.7916 272.3210 15.08840502 37129,6917.879,95.438,540.551,538.937,0.0
53968.0,STARLINK-4629,PAYLOAD,2023-06-05 10:50:53,15.08840472,0.0001151,53.2168,70.194,85.4196,274.6928,3.3314e-05,2.42e-06,0.0,0 STARLINK-4629,1 53968U 22125E   23156.45200562  .00000242  00000-0  33314-4 0  9990,2 53968  53.2168  70.1940 0001151  85.4196 274.6928 15.08840472 37119,6917.879,95.438,540.54,538.948,0.0
53968.0,STARLINK-4629,PAYLOAD,2023-06-05 20:23:12,15.08838193,0.0001109,53.2166,68.4099,88.6774,271.4345,-0.00010321,-1.93e-05,0.0,0 STARLINK-4629,1 53968U 22125E   23156.84945238 -.00001930  00000-0 -10321-3 0  9998,2 53968  53.2166  68.4099 0001109  88.6774 271.4345 15.08838193 37173,6917.886,95.438,540.518,538.984,0.0
